{"type": "FeatureCollection", "columns": {"cell_id": "String", "count": "Long<0, 4294967295>", "label": "Byte<1, 1>", "system:index": "String"}, "features": [{"type": "Feature", "geometry": {"geodesic": false, "type": "Polygon", "coordinates": [[[72.75006328441945, 18.85024792196404], [73.10040624522607, 18.85024792196404], [73.10040624522607, 19.349711219934495], [72.75006328441945, 19.349711219934495], [72.75006328441945, 18.85024792196404]]]}, "id": "+81374+21539", "properties": {"cell_id": "cell_19.09988_72.92523", "count": 216840, "label": 1}}]}