{
  "type": "FeatureCollection",
  "features": [
    {
      "type": "Feature",
      "geometry": {
        "type": "Point",
        "coordinates": [
          72.823,
          18.925
        ]
      },
      "properties": {
        "id": "node-fb-001",
        "name": "Nariman Point High-Rise Complex",
        "category": "highrise",
        "label": "High-Rise Vertical Shelter",
        "elevation_asl_m": 68.0,
        "capacity": 800,
        "status": "Active / Secure",
        "levels": "20",
        "osm_id": 0
      }
    },
    {
      "type": "Feature",
      "geometry": {
        "type": "Point",
        "coordinates": [
          72.835,
          18.94
        ]
      },
      "properties": {
        "id": "node-fb-002",
        "name": "CSMT Heritage Shelter Zone",
        "category": "highrise",
        "label": "High-Rise Vertical Shelter",
        "elevation_asl_m": 53.0,
        "capacity": 600,
        "status": "Active / Secure",
        "levels": "15",
        "osm_id": 0
      }
    },
    {
      "type": "Feature",
      "geometry": {
        "type": "Point",
        "coordinates": [
          72.841,
          18.989
        ]
      },
      "properties": {
        "id": "node-fb-003",
        "name": "KEM Hospital Emergency Zone",
        "category": "hospital",
        "label": "Emergency Medical Zone",
        "elevation_asl_m": 20.0,
        "capacity": 300,
        "status": "Active / Critical",
        "levels": "4",
        "osm_id": 0
      }
    },
    {
      "type": "Feature",
      "geometry": {
        "type": "Point",
        "coordinates": [
          72.826,
          19.049
        ]
      },
      "properties": {
        "id": "node-fb-004",
        "name": "Lilavati Hospital – Bandra",
        "category": "hospital",
        "label": "Emergency Medical Zone",
        "elevation_asl_m": 26.0,
        "capacity": 250,
        "status": "Active / Critical",
        "levels": "6",
        "osm_id": 0
      }
    },
    {
      "type": "Feature",
      "geometry": {
        "type": "Point",
        "coordinates": [
          72.856,
          19.041
        ]
      },
      "properties": {
        "id": "node-fb-005",
        "name": "Dharavi Municipal School",
        "category": "school",
        "label": "Reinforced School Shelter",
        "elevation_asl_m": 17.0,
        "capacity": 500,
        "status": "Active / Secure",
        "levels": "3",
        "osm_id": 0
      }
    },
    {
      "type": "Feature",
      "geometry": {
        "type": "Point",
        "coordinates": [
          72.868,
          19.113
        ]
      },
      "properties": {
        "id": "node-fb-006",
        "name": "Andheri Police Station",
        "category": "police",
        "label": "Municipal Control Point",
        "elevation_asl_m": 14.0,
        "capacity": 150,
        "status": "Active / Secure",
        "levels": "2",
        "osm_id": 0
      }
    },
    {
      "type": "Feature",
      "geometry": {
        "type": "Point",
        "coordinates": [
          72.815,
          19.011
        ]
      },
      "properties": {
        "id": "node-fb-007",
        "name": "Worli Sea Face Highrise",
        "category": "highrise",
        "label": "High-Rise Vertical Shelter",
        "elevation_asl_m": 92.0,
        "capacity": 900,
        "status": "Active / Secure",
        "levels": "28",
        "osm_id": 0
      }
    },
    {
      "type": "Feature",
      "geometry": {
        "type": "Point",
        "coordinates": [
          72.868,
          19.066
        ]
      },
      "properties": {
        "id": "node-fb-008",
        "name": "Bandra-Kurla Complex Office Hub",
        "category": "highrise",
        "label": "High-Rise Vertical Shelter",
        "elevation_asl_m": 74.0,
        "capacity": 700,
        "status": "Active / Secure",
        "levels": "22",
        "osm_id": 0
      }
    },
    {
      "type": "Feature",
      "geometry": {
        "type": "Point",
        "coordinates": [
          72.905,
          19.119
        ]
      },
      "properties": {
        "id": "node-fb-009",
        "name": "Powai Hospital",
        "category": "hospital",
        "label": "Emergency Medical Zone",
        "elevation_asl_m": 23.0,
        "capacity": 280,
        "status": "Active / Critical",
        "levels": "5",
        "osm_id": 0
      }
    },
    {
      "type": "Feature",
      "geometry": {
        "type": "Point",
        "coordinates": [
          72.815,
          18.905
        ]
      },
      "properties": {
        "id": "node-fb-010",
        "name": "Colaba Police HQ",
        "category": "police",
        "label": "Municipal Control Point",
        "elevation_asl_m": 17.0,
        "capacity": 180,
        "status": "Active / Secure",
        "levels": "3",
        "osm_id": 0
      }
    },
    {
      "type": "Feature",
      "geometry": {
        "type": "Point",
        "coordinates": [
          72.837,
          19.096
        ]
      },
      "properties": {
        "id": "node-fb-011",
        "name": "Juhu Airport Side School",
        "category": "school",
        "label": "Reinforced School Shelter",
        "elevation_asl_m": 14.0,
        "capacity": 420,
        "status": "Active / Secure",
        "levels": "2",
        "osm_id": 0
      }
    },
    {
      "type": "Feature",
      "geometry": {
        "type": "Point",
        "coordinates": [
          72.956,
          19.175
        ]
      },
      "properties": {
        "id": "node-fb-012",
        "name": "Mulund High-Rise Cluster",
        "category": "highrise",
        "label": "High-Rise Vertical Shelter",
        "elevation_asl_m": 62.0,
        "capacity": 750,
        "status": "Active / Secure",
        "levels": "18",
        "osm_id": 0
      }
    },
    {
      "type": "Feature",
      "geometry": {
        "type": "Point",
        "coordinates": [
          72.856,
          19.228
        ]
      },
      "properties": {
        "id": "node-fb-013",
        "name": "Borivali National Park Shelter",
        "category": "school",
        "label": "Reinforced School Shelter",
        "elevation_asl_m": 11.0,
        "capacity": 350,
        "status": "Active / Secure",
        "levels": "1",
        "osm_id": 0
      }
    },
    {
      "type": "Feature",
      "geometry": {
        "type": "Point",
        "coordinates": [
          72.86,
          19.039
        ]
      },
      "properties": {
        "id": "node-fb-014",
        "name": "Sion Hospital Zone",
        "category": "hospital",
        "label": "Emergency Medical Zone",
        "elevation_asl_m": 20.0,
        "capacity": 310,
        "status": "Active / Critical",
        "levels": "4",
        "osm_id": 0
      }
    },
    {
      "type": "Feature",
      "geometry": {
        "type": "Point",
        "coordinates": [
          73.02,
          19.022
        ]
      },
      "properties": {
        "id": "node-fb-015",
        "name": "Navi Mumbai Sector 17 Tower",
        "category": "highrise",
        "label": "High-Rise Vertical Shelter",
        "elevation_asl_m": 80.0,
        "capacity": 820,
        "status": "Active / Secure",
        "levels": "24",
        "osm_id": 0
      }
    }
  ]
}